NORAD_CAT_ID,OBJECT_NAME,OBJECT_TYPE,EPOCH,MEAN_MOTION,ECCENTRICITY,INCLINATION,RA_OF_ASC_NODE,ARG_OF_PERICENTER,MEAN_ANOMALY,BSTAR,MEAN_MOTION_DOT,MEAN_MOTION_DDOT,TLE_LINE0,TLE_LINE1,TLE_LINE2,SEMIMAJOR_AXIS,PERIOD,APOGEE,PERIGEE,DECAYED
53734.0,STARLINK-4616,PAYLOAD,2023-04-09 23:00:13,15.08837443,0.0001232,53.2162,354.0127,91.4306,268.6828,-5.292e-05,-1.13e-05,0.0,0 STARLINK-4616,1 53734U 22107AL  23099.95848608 -.00001130  00000-0 -52920-4 0  9994,2 53734  53.2162 354.0127 0001232  91.4306 268.6828 15.08837443 33218,6917.888,95.438,540.605,538.901,0.0
53734.0,STARLINK-4616,PAYLOAD,2023-04-10 02:10:59,15.08842177,0.0001048,53.2162,353.4161,96.621,263.4901,-2.2584e-05,-6.47e-06,0.0,0 STARLINK-4616,1 53734U 22107AL  23100.09096327 -.00000647  00000-0 -22584-4 0  9990,2 53734  53.2162 353.4161 0001048  96.6210 263.4901 15.08842177 33861,6917.874,95.437,540.464,539.014,0.0
53734.0,STARLINK-4616,PAYLOAD,2023-04-11 02:01:44,15.08873507,0.0001345,53.2166,348.9526,107.0601,253.0539,0.00040493,6.168e-05,0.0,0 STARLINK-4616,1 53734U 22107AL  23101.08453879  .00006168  00000-0  40493-3 0  9999,2 53734  53.2166 348.9526 0001345 107.0601 253.0539 15.08873507 34011,6917.778,95.435,540.573,538.713,0.0
53734.0,STARLINK-4616,PAYLOAD,2023-04-11 16:20:14,15.08832103,0.0001389,53.2162,346.28,91.8519,268.2632,-0.00012927,-2.344e-05,0.0,0 STARLINK-4616,1 53734U 22107AL  23101.68072552 -.00002344  00000-0 -12927-3 0  9995,2 53734  53.2162 346.2800 0001389  91.8519 268.2632 15.08832103 34108,6917.905,95.438,540.73,538.809,0.0
53734.0,STARLINK-4616,PAYLOAD,2023-04-12 01:52:34,15.08823731,0.0001207,53.216,344.4936,89.5983,270.5148,-0.00020842,-3.602e-05,0.0,0 STARLINK-4616,1 53734U 22107AL  23102.07817224 -.00003602  00000-0 -20842-3 0  9995,2 53734  53.2160 344.4936 0001207  89.5983 270.5148 15.08823731 33535,6917.93,95.439,540.63,538.96,0.0
53734.0,STARLINK-4616,PAYLOAD,2023-04-13 01:43:19,15.08857771,0.0001053,53.2156,340.0335,85.8915,274.2197,0.00011146,1.487e-05,0.0,0 STARLINK-4616,1 53734U 22107AL  23103.07175443  .00001487  00000-0  11146-3 0  9990,2 53734  53.2156 340.0335 0001053  85.8915 274.2197 15.08857771 34311,6917.826,95.436,540.42,538.963,0.0
53734.0,STARLINK-4616,PAYLOAD,2023-04-13 20:47:59,15.08832248,0.0001254,53.2158,336.465,88.4896,271.624,0.00029731,4.446e-05,0.0,0 STARLINK-4616,1 53734U 22107AL  23103.86665548  .00004446  00000-0  29731-3 0  9994,2 53734  53.2158 336.4650 0001254  88.4896 271.6240 15.08832248 33807,6917.904,95.438,540.637,538.902,0.0
53734.0,STARLINK-4616,PAYLOAD,2023-04-14 01:34:07,15.08848138,0.0001191,53.2157,335.5739,89.9178,270.1951,0.00041531,6.329e-05,0.0,0 STARLINK-4616,1 53734U 22107AL  23104.06536764  .00006329  00000-0  41531-3 0  9998,2 53734  53.2157 335.5739 0001191  89.9178 270.1951 15.08848138 34464,6917.856,95.437,540.544,538.897,0.0
53734.0,STARLINK-4616,PAYLOAD,2023-04-15 14:08:00,15.0883225,0.0001024,53.2155,328.7329,96.4258,263.6851,9.3363e-06,-1.39e-06,0.0,0 STARLINK-4616,1 53734U 22107AL  23105.58889602 -.00000139  00000-0  93363-5 0  9994,2 53734  53.2155 328.7329 0001024  96.4258 263.6851 15.08832250 34068,6917.904,95.438,540.477,539.061,0.0
53734.0,STARLINK-4616,PAYLOAD,2023-04-15 20:29:33,15.0883801,0.0001049,53.2155,327.5437,102.1493,257.9616,0.00012422,1.69e-05,0.0,0 STARLINK-4616,1 53734U 22107AL  23105.85385446  .00001690  00000-0  12422-3 0  9998,2 53734  53.2155 327.5437 0001049 102.1493 257.9616 15.08838010 34737,6917.886,95.438,540.477,539.026,0.0
53734.0,STARLINK-4616,PAYLOAD,2023-04-15 23:40:19,15.08842211,0.0001,53.2155,326.9489,100.4972,259.6133,0.00044671,6.829e-05,0.0,0 STARLINK-4616,1 53734U 22107AL  23105.98633475  .00006829  00000-0  44671-3 0  9990,2 53734  53.2155 326.9489 0001000 100.4972 259.6133 15.08842211 34750,6917.874,95.437,540.43,539.047,0.0
53734.0,STARLINK-4616,PAYLOAD,2023-04-16 20:20:20,15.08844903,0.0001039,53.2147,323.0831,107.6544,252.4562,0.00042241,6.442e-05,0.0,0 STARLINK-4616,1 53734U 22107AL  23106.84745612  .00006442  00000-0  42241-3 0  9995,2 53734  53.2147 323.0831 0001039 107.6544 252.4562 15.08844903 34258,6917.865,95.437,540.449,539.012,0.0
53734.0,STARLINK-4616,PAYLOAD,2023-04-17 13:49:34,15.08839652,0.0001047,53.2142,319.8123,107.9955,252.1151,0.0003623,5.483e-05,0.0,0 STARLINK-4616,1 53734U 22107AL  23107.57609702  .00005483  00000-0  36230-3 0  9990,2 53734  53.2142 319.8123 0001047 107.9955 252.1151 15.08839652 34366,6917.881,95.438,540.471,539.022,0.0
53734.0,STARLINK-4616,PAYLOAD,2023-04-17 21:46:30,15.08850586,8.76e-05,53.2142,318.3256,102.5679,257.5411,0.00068747,0.00010673,0.0,0 STARLINK-4616,1 53734U 22107AL  23107.90729615  .00010673  00000-0  68747-3 0  9998,2 53734  53.2142 318.3256 0000876 102.5679 257.5411 15.08850586 35043,6917.848,95.437,540.319,539.107,0.0
53734.0,STARLINK-4616,PAYLOAD,2023-04-17 23:21:53,15.08852338,9.56e-05,53.2143,318.0287,104.321,255.7888,0.00075827,0.00011805,0.0,0 STARLINK-4616,1 53734U 22107AL  23107.97353532  .00011805  00000-0  75827-3 0  9991,2 53734  53.2143 318.0287 0000956 104.3210 255.7888 15.08852338 35051,6917.843,95.437,540.369,539.046,0.0
53734.0,STARLINK-4616,PAYLOAD,2023-04-18 13:40:22,15.08826168,7.31e-05,53.2138,315.3515,117.7903,242.3163,0.00050708,7.789e-05,0.0,0 STARLINK-4616,1 53734U 22107AL  23108.56970593  .00007789  00000-0  50708-3 0  9996,2 53734  53.2138 315.3515 0000731 117.7903 242.3163 15.08826168 34517,6917.923,95.438,540.293,539.282,0.0
53734.0,STARLINK-4616,PAYLOAD,2023-04-18 20:01:55,15.08810361,0.0001026,53.2136,314.1625,92.1666,267.9443,0.00025186,3.72e-05,0.0,0 STARLINK-4616,1 53734U 22107AL  23108.83467477  .00003720  00000-0  25186-3 0  9991,2 53734  53.2136 314.1625 0001026  92.1666 267.9443 15.08810361 34550,6917.971,95.439,540.546,539.126,0.0
53734.0,STARLINK-4616,PAYLOAD,2023-04-19 13:31:10,15.08860641,9.26e-05,53.2148,310.8928,48.6055,311.5016,0.0017245,0.0002728,0.0,0 STARLINK-4616,1 53734U 22107AL  23109.56331189  .00027280  00000-0  17245-2 0  9995,2 53734  53.2148 310.8928 0000926  48.6055 311.5016 15.08860641 34668,6917.817,95.436,540.323,539.042,0.0
53734.0,STARLINK-4616,PAYLOAD,2023-04-19 16:41:56,15.0888114,8.45e-05,53.215,310.2976,54.7885,305.3186,0.0019637,0.00031138,0.0,0 STARLINK-4616,1 53734U 22107AL  23109.69578728  .00031138  00000-0  19637-2 0  9995,2 53734  53.2150 310.2976 0000845  54.7885 305.3186 15.08881140 35316,6917.755,95.435,540.204,539.035,0.0
53734.0,STARLINK-4616,PAYLOAD,2023-04-19 18:17:18,15.08889634,8.99e-05,53.215,309.9993,67.1096,292.9991,0.0022124,0.00035146,0.0,0 STARLINK-4616,1 53734U 22107AL  23109.76202494  .00035146  00000-0  22124-2 0  9995,2 53734  53.2150 309.9993 0000899  67.1096 292.9991 15.08889634 34692,6917.729,95.434,540.216,538.972,0.0
53734.0,STARLINK-4616,PAYLOAD,2023-04-20 13:21:55,15.08873897,8.13e-05,53.2129,306.4297,92.7025,267.406,0.0015778,0.00024935,0.0,0 STARLINK-4616,1 53734U 22107AL  23110.55689741  .00024935  00000-0  15778-2 0  9999,2 53734  53.2129 306.4297 0000813  92.7025 267.4060 15.08873897 35441,6917.777,95.435,540.204,539.079,0.0
53734.0,STARLINK-4616,PAYLOAD,2023-04-20 19:43:28,15.088424,5.24e-05,53.2131,305.2403,323.5666,36.5291,0.0016496,0.00026065,0.0,0 STARLINK-4616,1 53734U 22107AL  23110.82185768  .00026065  00000-0  16496-2 0  9993,2 53734  53.2131 305.2403 0000524 323.5666  36.5291 15.08842400 35486,6917.873,95.437,540.101,539.376,0.0
53734.0,STARLINK-4616,PAYLOAD,2023-04-21 13:12:43,15.08848178,0.0001191,53.2146,301.9725,83.3408,276.772,0.0012628,0.00019871,0.0,0 STARLINK-4616,1 53734U 22107AL  23111.55050171  .00019871  00000-0  12628-2 0  9993,2 53734  53.2146 301.9725 0001191  83.3408 276.7720 15.08848178 34963,6917.855,95.437,540.544,538.896,0.0
53734.0,STARLINK-4616,PAYLOAD,2023-04-21 21:09:38,15.08844651,0.0001113,53.2141,300.484,79.3495,280.7622,0.00078708,0.00012262,0.0,0 STARLINK-4616,1 53734U 22107AL  23111.88170119  .00012262  00000-0  78708-3 0  9993,2 53734  53.2141 300.4840 0001113  79.3495 280.7622 15.08844651 35649,6917.866,95.437,540.501,538.961,0.0
53734.0,STARLINK-4616,PAYLOAD,2023-04-22 13:03:28,15.0889495,0.0001351,53.2141,297.5104,82.6164,277.4982,0.0014666,0.00023165,0.0,0 STARLINK-4616,1 53734U 22107AL  23112.54408114  .00023165  00000-0  14666-2 0  9992,2 53734  53.2141 297.5104 0001351  82.6164 277.4982 15.08894950 35113,6917.712,95.434,540.512,538.643,0.0
53734.0,STARLINK-4616,PAYLOAD,2023-04-22 19:24:55,15.09071589,7.49e-05,53.2142,296.3218,101.2406,258.867,0.0054408,0.00087941,0.0,0 STARLINK-4616,1 53734U 22107AL  23112.80897016  .00087941  00000-0  54408-2 0  9994,2 53734  53.2142 296.3218 0000749 101.2406 258.8670 15.09071589 35151,6917.173,95.423,539.556,538.52,0.0
53734.0,STARLINK-4616,PAYLOAD,2023-04-23 04:56:54,15.09376938,0.0001086,53.2137,294.5334,84.0964,276.0152,0.0084238,0.00138446,0.0,0 STARLINK-4616,1 53734U 22107AL  23113.20618795  .00138446  00000-0  84238-2 0  9995,2 53734  53.2137 294.5334 0001086  84.0964 276.0152 15.09376938 35216,6916.24,95.404,538.856,537.354,0.0
53734.0,STARLINK-4616,PAYLOAD,2023-04-23 12:53:35,15.09576618,0.000137,53.2144,293.0449,66.3015,293.8121,0.010474,0.00174032,0.0,0 STARLINK-4616,1 53734U 22107AL  23113.53721756  .00174032  00000-0  10474-1 0  9994,2 53734  53.2144 293.0449 0001370  66.3015 293.8121 15.09576618 35266,6915.63,95.391,538.442,536.547,0.0
53734.0,STARLINK-4616,PAYLOAD,2023-04-23 20:50:06,15.09870282,0.0002882,53.2137,291.5563,123.1206,237.0063,0.01251,0.00210693,0.0,0 STARLINK-4616,1 53734U 22107AL  23113.86813524  .00210693  00000-0  12510-1 0  9992,2 53734  53.2137 291.5563 0002882 123.1206 237.0063 15.09870282 35945,6914.733,95.372,538.591,534.605,0.0
53734.0,STARLINK-4616,PAYLOAD,2023-04-24 14:00:01,15.10475906,0.0001273,53.2142,288.3377,94.917,196.4179,-0.0012761,-0.00021473,0.0,0 STARLINK-4616,1 53734U 22107AL  23114.58334491 -.00021473  00000-0 -12761-2 0  9990,2 53734  53.2142 288.3377 0001273  94.9170 196.4179 15.10475906  1301,6912.885,95.334,535.63,533.87,0.0
